AKEBONO (EXOS-D)        
1 19822U 89016A   20269.45318323  .00031236  19874-6  54001-3 0  9997
2 19822  75.0082 305.0329 1712027 142.6944 230.6400 12.12514572 51706
HST                     
1 20580U 90037B   20269.52666578  .00000529  00000-0  21173-4 0  9992
2 20580  28.4709  17.7496 0002917  88.2040 333.5792 15.09435928471091
POLAR                   
1 23802U 96013A   20269.04424009  .00000174  00000-0  00000-0 0  9998
2 23802  78.7087 248.5585 6231051 279.9975  19.1434  1.29846471117684
SWAS                    
1 25560U 98071A   20269.35678354  .00000139  00000-0  21582-4 0  9998
2 25560  69.8978 132.2832 0008901 210.0022 150.0625 14.93909856183941
ORSTED                  
1 25635U 99008B   20269.47703346  .00000086  00000-0  27788-4 0  9990
2 25635  96.4466 270.1930 0139626  31.9967 328.9614 14.48223807139096
CXO                     
1 25867U 99040B   20272.30239470  .00000687  00000-0  00000-0 0  9992
2 25867  60.6346 264.1691 7896019 227.0992   0.5260  0.37808764  9448
XMM-NEWTON              
1 25989U 99066A   20271.26408095  .00000044  00000-0  00000+0 0  9996
2 25989  71.0794 318.3700 6973332  92.4409   0.0528  0.50130413 26893
TERRA                   
1 25994U 99068A   20269.49660550  .00000028  00000-0  16252-4 0  9995
2 25994  98.2053 342.3571 0001468  99.6263 260.5118 14.57111414104880
CLUSTER II-FM7 (SAMBA)  
1 26410U 00041A   20268.87230460 -.00000242  00000-0  00000-0 0  9995
2 26410 132.0735 342.3922 4513583 185.8194   0.4299  0.44216333 11020
CLUSTER II-FM6 (SALSA)  
1 26411U 00041B   20268.96936596 -.00000413  00000-0  00000+0 0  9998
2 26411 132.1983 343.7695 5856555 191.4122   0.5002  0.44222360 22092
CLUSTER II-FM5 (RUMBA)  
1 26463U 00045A   20268.92905907 -.00000325  00000-0  00000-0 0  9990
2 26463 135.8413 343.4929 5452429 191.2465   0.5206  0.44221079 10958
CLUSTER II-FM8 (TANGO)  
1 26464U 00045B   20271.12274549 -.00000190  00000-0  00000-0 0  9998
2 26464 132.0858 342.4048 4516886 185.8518   0.3850  0.44220590 11048
ODIN                    
1 26702U 01007A   20269.31090838 -.00007017  00000-0 -45058-3 0  9998
2 26702  97.5534 284.6008 0009654 289.1410  70.8773 15.08141402 71870
TIMED                   
1 26998U 01055B   20269.22441688  .00000099  00000-0  14749-4 0  9996
2 26998  74.0706  94.5789 0000996 210.1759 149.9365 14.88215882 19308
RHESSI                  
1 27370U 02004A   20269.45983145  .00002444  00000-0  78903-4 0  9998
2 27370  38.0325 288.7378 0010740  72.2628 287.9314 15.33134534 29685
INTEGRAL                
1 27540U 02048A   20259.91959736  .00000389  00000-0  00000+0 0  9998
2 27540  56.6953 106.5518 8976679 294.1035   1.8774  0.37585368 18737
CORIOLIS                
1 27640U 03001A   20269.47926360 -.00000007  00000-0  17369-4 0  9997
2 27640  98.7275 277.3946 0015236 108.0131   9.5476 14.19047301917602
SORCE                   
1 27651U 03004A   20269.09947514  .00000097  00000-0  24210-4 0  9995
2 27651  39.9950 134.3212 0022479 355.9069   4.1533 14.89149358959051
MOST                    
1 27843U 03031D   20269.49598756 -.00000005  00000-0  17786-4 0  9992
2 27843  98.7116 275.3437 0010359 159.2409 200.9191 14.20617706893801
SCISAT 1                
1 27858U 03036A   20269.48734123 -.00000002  00000-0  47676-5 0  9991
2 27858  73.9351 347.5428 0007748 181.8777 178.2370 14.77301217922428
SWIFT                   
1 28485U 04047A   20268.70198906  .00000896  00000-0  30683-4 0  9997
2 28485  20.5575  50.0580 0010931 232.2666 127.6777 15.04680071868441
FORMOSAT-3 FM6          
1 29047U 06011A   20269.45788063  .00000068  00000-0  43126-4 0  9994
2 29047  71.9763 265.8731 0052418 250.3505 109.1970 14.28747513755601
FORMOSAT-3 FM1          
1 29048U 06011B   20269.47901797  .00000001  00000-0  16882-4 0  9994
2 29048  71.9672 176.6247 0044646 209.6870 150.1732 14.28717205758091
FORMOSAT-3 FM5          
1 29049U 06011C   20269.47444640  .00000055  00000-0  37881-4 0  9995
2 29049  72.0227 348.8505 0036578 235.3782 124.3904 14.28797908753887
FORMOSAT-3 FM3          
1 29050U 06011D   20269.31806148  .00000096  00000-0  30552-4 0  9998
2 29050  72.0145 125.0571 0048752 144.9777 215.4599 14.58948794770898
FORMOSAT-3 FM4          
1 29051U 06011E   20269.40245979  .00000073  00000-0  43950-4 0  9999
2 29051  72.0034 250.8577 0066262 112.7291 248.0867 14.28830665756460
FORMOSAT-3 FM2          
1 29052U 06011F   20269.46468029  .00000038  00000-0  30950-4 0  9996
2 29052  72.0352 325.2382 0040578 195.4564 164.5337 14.28936704754809
CLOUDSAT                
1 29107U 06016A   20269.46790141  .00000088  00000-0  26810-4 0  9990
2 29107  98.2397 216.4372 0002980  79.6919 280.4618 14.62457833766948
CALIPSO                 
1 29108U 06016B   20269.46769447  .00000117  00000-0  32516-4 0  9999
2 29108  98.2381 216.1997 0001260  82.0667 278.0677 14.62441240766954
HINODE (SOLAR-B)        
1 29479U 06041A   20269.47784952  .00000064  00000-0  20897-4 0  9997
2 29479  98.1596 280.4835 0018227  56.6033 303.6911 14.65086591748539
SJ-6C                   
1 29505U 06046A   20269.52720773  .00000289  00000-0  31845-4 0  9993
2 29505  97.8152 282.8991 0006016  68.2833 291.9041 14.94915639758565
SJ-6D                   
1 29506U 06046B   20269.43123724 -.00000598  00000-0 -51329-4 0  9991
2 29506  97.8355 282.9555 0002993 123.8028 236.3479 14.93529524758091
AGILE                   
1 31135U 07013A   20269.33342455  .00002565  00000-0  43517-4 0  9994
2 31135   2.4672 132.8005 0012163 297.3783  62.5034 15.32532345380001
AIM                     
1 31304U 07015A   20269.32493294  .00000880  00000-0  52776-4 0  9996
2 31304  97.8919 155.7704 0005914  31.3021 328.8560 15.13729161735793
FGRST (GLAST)           
1 33053U 08029A   20269.33801205  .00000539  00000-0  14052-4 0  9997
2 33053  25.5822 140.1486 0012623  83.9429 276.2544 15.11372422678440
WISE                    
1 36119U 09071A   20269.19754286  .00000857  00000-0  31839-4 0  9996
2 36119  97.3200 304.0917 0003747  54.8189 305.3402 15.30243972599076
SDO                     
1 36395U 10005A   20269.09764233 -.00000085  00000-0  00000+0 0  9998
2 36395  30.4875 119.6268 0000973   8.6323 169.4972  1.00274951 39064
CRYOSAT 2               
1 36508U 10013A   20269.53346664  .00000062  00000-0  14627-4 0  9995
2 36508  92.0229 131.9951 0004298 211.2914 148.8038 14.51902728554791
X-SAT                   
1 37389U 11015C   20269.47731763 -.00000019  00000-0  96949-5 0  9998
2 37389  98.4246 320.7880 0014264   2.7953 357.3307 14.24381926490524
GCOM-W1 (SHIZUKU)       
1 38337U 12025A   20269.46781834  .00000038  00000-0  18432-4 0  9997
2 38337  98.2028 208.0024 0002324  43.7797  70.9560 14.57144570444567
NUSTAR                  
1 38358U 12031A   20269.43402267  .00001015  00000-0  32186-4 0  9992
2 38358   6.0263 262.7579 0012259 252.4574 107.4215 14.88343615450936
NEOSSAT                 
1 39089U 13009D   20269.50455105  .00000059  00000-0  36082-4 0  9993
2 39089  98.4605 109.3232 0011273 356.5282   3.5824 14.34523563396891
IRIS                    
1 39197U 13033A   20269.48329782  .00000098  00000-0  20474-4 0  9999
2 39197  97.9618  90.4941 0026310 266.4216  93.3986 14.78753633390868
HISAKI (SPRINT-A)       
1 39253U 13049A   20269.32542816  .00000107  00000-0  58771-4 0  9999
2 39253  29.7212  46.7653 0137404 350.9465   8.8641 13.55229103348608
CASSIOPE                
1 39265U 13055A   20269.53905015  .00006887  00000-0  19304-3 0  9995
2 39265  80.9682 209.7628 0659084  10.3379 351.0610 14.29921718362101
STSAT-3                 
1 39422U 13066G   20269.51540698  .00000680  00000-0  75984-4 0  9994
2 39422  97.5053 297.2236 0021994 217.2335 142.7367 14.89861214372039
SWARM B                 
1 39451U 13067A   20269.48323136  .00000380  00000-0  15176-4 0  9993
2 39451  87.7494 249.8388 0002813 116.2949 243.8586 15.21786268365175
SWARM A                 
1 39452U 13067B   20269.54822018  .00001360  00000-0  28154-4 0  9993
2 39452  87.3558  94.2801 0002932  74.0919 286.0661 15.44724523384631
SWARM C                 
1 39453U 13067C   20269.54813641  .00001356  00000-0  28048-4 0  9993
2 39453  87.3411  95.0348 0002933  74.1098 286.0482 15.44725147384594
BRITE-CA1 (TORONTO)     
1 40020U 14033L   20269.49667905  .00000032  00000-0  13503-4 0  9993
2 40020  97.7324  91.9884 0088676 113.0681 247.9903 14.66660011335437
OCO 2                   
1 40059U 14035A   20269.51115286  .00000037  00000-0  18227-4 0  9993
2 40059  98.1962 208.7967 0001238  77.5800 282.5537 14.57114769331593
BRITE-PL2 (HEWELIUSZ)   
1 40119U 14049B   20269.21109981  .00000066  00000-0  14299-4 0  9994
2 40119  97.8945   0.4480 0018363 139.7800 220.4777 14.84534579330492
RESURS P2               
1 40360U 14087A   20269.48922454  .00000531  00000-0  18652-4 0  9995
2 40360  97.2429 356.3422 0009026 175.5555   9.8907 15.33660151321643
MMS 1                   
1 40482U 15011A   20269.20833333 -.00001414  00000-0  00000+0 0  9990
2 40482  30.3353 119.5599 8548362  24.1422 286.5787  0.28576340 11490
MMS 2                   
1 40483U 15011B   20269.20833333 -.00001413  00000-0  00000+0 0  9990
2 40483  30.3338 119.5610 8545836  24.1439 286.5666  0.28576341 11474
MMS 3                   
1 40484U 15011C   20269.20833333 -.00001414  00000-0  00000+0 0  9992
2 40484  30.3422 119.5577 8547412  24.1636 286.5535  0.28572448 11471
MMS 4                   
1 40485U 15011D   20269.20833333 -.00001414  00000-0  00000+0 0  9993
2 40485  30.3343 119.5728 8547554  24.1466 286.5263  0.28576310 11481
ASTROSAT                
1 40930U 15052A   20269.28271398  .00000759  00000-0  17472-4 0  9994
2 40930   5.9977 350.7519 0009008 242.5429 117.3783 14.76331591269995
DAMPE                   
1 41173U 15078A   20269.51071568  .00000020  00000-0  37148-5 0  9999
2 41173  97.3316 261.2377 0011990 258.8222 216.0441 15.23899397265630
PISAT                   
1 41784U 16059B   20269.38525211  .00000066  00000-0  21757-4 0  9999
2 41784  98.0083 323.1126 0031844   1.0956 359.0311 14.63539340213526
HXMT (HUIYAN)           
1 42758U 17034A   20269.56821780  .00000197  00000-0  26000-4 0  9996
2 42758  43.0175 206.7503 0011727 298.0481 230.8490 15.08894415180999
FLYING LAPTOP           
1 42831U 17042G   20269.58255413 -.00000261  00000-0 -20987-4 0  9995
2 42831  97.5047 146.7345 0013163 317.3216  42.6989 14.91157920174211
PICSAT                  
1 43132U 18004X   20269.47556219  .00001679  00000-0  70840-4 0  9990
2 43132  97.4393 340.1748 0010999  66.8055 293.4339 15.24642477150297
ZHANGZHENG-1 (CSES)     
1 43194U 18015C   20269.52583919  .00000885  00000-0  43175-4 0  9992
2 43194  97.4488  33.3685 0016651 113.7493  16.7698 15.20804826146877
ICON                    
1 44628U 19068A   20269.24191575  .00000486  00000-0  27387-4 0  9990
2 44628  26.9898 102.4739 0018909 334.6183  25.3446 14.91735974 52336
